OBJECT_NAME,OBJECT_ID,EPOCH,MEAN_MOTION,ECCENTRICITY,INCLINATION,RA_OF_ASC_NODE,ARG_OF_PERICENTER,MEAN_ANOMALY,EPHEMERIS_TYPE,CLASSIFICATION_TYPE,NORAD_CAT_ID,ELEMENT_SET_NO,REV_AT_EPOCH,BSTAR,MEAN_MOTION_DOT,MEAN_MOTION_DDOT
ONEWEB-0410,2022-012A,2026-06-22T18:15:17.765856,13.17648648,.0002905,87.9143,4.7484,68.5368,291.6073,0,U,51622,999,21443,.69589991E-4,.4E-6,0
ONEWEB-0411,2022-012B,2026-06-22T14:05:48.106176,13.10311897,.00018391,87.8837,35.1915,101.4152,258.7182,0,U,51623,999,20999,.20070235E-3,.83E-6,0
ONEWEB-0415,2022-012C,2026-06-22T14:00:55.600704,13.10325802,.0001921,87.8837,35.1910,90.9392,269.1955,0,U,51624,999,20999,-.38052148E-3,-.12E-5,0
ONEWEB-0416,2022-012D,2026-06-22T14:18:00.283968,13.10276703,.00022356,87.8830,35.2063,90.7858,269.3525,0,U,51625,999,21003,.12620255E-2,.453E-5,0
ONEWEB-0422,2022-012E,2026-06-22T05:44:26.513664,13.17649814,.00012525,87.9139,4.8533,95.7031,264.4244,0,U,51626,999,21447,.10641243E-3,.54E-6,0
ONEWEB-0423,2022-012F,2026-06-22T11:02:45.446208,13.17650950,.00018843,87.9134,4.8147,85.3208,274.8138,0,U,51627,999,21439,.77562425E-4,.43E-6,0
ONEWEB-0425,2022-012G,2026-06-22T01:42:51.875136,13.10232547,.00020953,87.8829,35.2943,76.6353,283.5008,0,U,51628,999,20996,.15911397E-2,.567E-5,0
ONEWEB-0428,2022-012H,2026-06-22T14:03:22.228416,13.10319174,.00017715,87.8834,35.1990,82.9161,277.2168,0,U,51629,999,20999,-.28338865E-4,.3E-7,0
ONEWEB-0431,2022-012J,2026-06-22T07:49:32.109312,13.10441219,.0001778,87.8826,35.2431,103.8676,256.2650,0,U,51630,999,21001,-.11715555E-2,-.397E-5,0
ONEWEB-0434,2022-012K,2026-06-22T01:47:56.142240,13.10218726,.00022186,87.8830,35.3186,69.3692,290.7673,0,U,51631,999,20996,.14205915E-2,.507E-5,0
ONEWEB-0435,2022-012L,2026-06-22T07:27:50.618592,13.10503260,.00015456,87.8822,35.2571,90.2547,269.8758,0,U,51632,999,20998,.98219842E-3,.356E-5,0
ONEWEB-0436,2022-012M,2026-06-22T18:07:59.882016,13.17649772,.00016624,87.9140,4.7378,93.2406,266.8916,0,U,51633,999,21441,.13793386E-4,.18E-6,0
ONEWEB-0438,2022-012N,2026-06-22T08:55:25.826880,13.10254346,.00019384,87.8824,35.2483,79.7920,280.3426,0,U,51634,999,21002,.16967543E-2,.604E-5,0
ONEWEB-0439,2022-012P,2026-06-22T01:40:26.615136,13.10241946,.00018224,87.8828,35.2960,81.6638,278.4696,0,U,51635,999,20996,.57779841E-3,.214E-5,0
ONEWEB-0442,2022-012Q,2026-06-22T10:39:40.726368,13.17649302,.00023205,87.9131,4.8322,79.9419,280.1974,0,U,51636,999,21436,.11022776E-3,.56E-6,0
ONEWEB-0443,2022-012R,2026-06-22T05:39:33.841440,13.17650103,.00016826,87.9133,4.8747,79.1764,280.9557,0,U,51637,999,21438,.10652301E-3,.54E-6,0
ONEWEB-0444,2022-012S,2026-06-22T14:15:34.007040,13.10284130,.00016689,87.8831,35.1901,78.0060,282.1254,0,U,51638,999,21004,.10770236E-2,.388E-5,0
ONEWEB-0445,2022-012T,2026-06-22T07:25:24.341664,13.10509734,.00020569,87.8832,35.2352,90.1137,270.0226,0,U,51639,999,21001,.12120833E-2,.437E-5,0
ONEWEB-0446,2022-012U,2026-06-22T14:13:07.533984,13.10291167,.0002013,87.8838,35.2074,86.8898,273.2459,0,U,51640,999,21003,.95869177E-3,.347E-5,0
ONEWEB-0448,2022-012V,2026-06-22T14:20:26.140992,13.10269120,.00017597,87.8828,35.2028,81.2793,278.8534,0,U,51641,999,21000,.15016597E-2,.536E-5,0
ONEWEB-0449,2022-012W,2026-06-22T08:57:52.005312,13.10247061,.00021491,87.8834,35.2332,73.2715,286.8648,0,U,51642,999,20998,.17257844E-2,.614E-5,0
ONEWEB-0451,2022-012X,2026-06-22T12:35:06.622944,13.17649440,.00019651,87.9143,4.7815,83.2230,276.9125,0,U,51643,999,21436,.121966E-3,.6E-6,0
ONEWEB-0452,2022-012Y,2026-06-22T12:32:39.792192,13.17649484,.00017981,87.9133,4.8181,79.5331,280.6003,0,U,51644,999,21437,.8579944E-5,.16E-6,0
ONEWEB-0456,2022-012AA,2026-06-22T09:10:27.947424,13.10529357,.00016195,87.8839,35.2189,85.2134,274.9179,0,U,51646,999,21002,.30782949E-2,.109E-4,0
ONEWEB-0457,2022-012AB,2026-06-22T14:08:02.874624,13.10305021,.00022121,87.8833,35.1957,85.9488,274.1892,0,U,51647,999,21005,.44933407E-3,.169E-5,0
ONEWEB-0458,2022-012AC,2026-06-22T09:09:02.327616,13.10371363,.00017528,87.8837,35.2249,77.3237,282.8086,0,U,51648,999,20998,.14878512E-2,.532E-5,0
ONEWEB-0461,2022-012AD,2026-06-22T14:53:36.401280,13.17649122,.00019892,87.9142,4.7763,89.8893,270.2466,0,U,51649,999,21460,-.14483991E-4,.7E-7,0
ONEWEB-0463,2022-012AE,2026-06-22T10:48:11.458368,13.17649232,.00019955,87.9131,4.8323,91.0685,269.0675,0,U,51650,999,21436,.98251074E-4,.51E-6,0
ONEWEB-0464,2022-012AF,2026-06-22T09:05:10.236480,13.10228914,.00015642,87.8823,35.2470,80.3464,279.7840,0,U,51651,999,21000,.27766492E-2,.98E-5,0
ONEWEB-0468,2022-012AG,2026-06-22T07:22:58.190016,13.10516620,.00015354,87.8823,35.2548,81.8000,278.3301,0,U,51652,999,20997,.11922839E-2,.43E-5,0
