ONEWEB-0410             
1 51622U 22012A   26173.76062229  .00000040  00000+0  69590-4 0  9992
2 51622  87.9143   4.7484 0002905  68.5368 291.6073 13.17648648214439
ONEWEB-0411             
1 51623U 22012B   26173.58736234  .00000083  00000+0  20070-3 0  9993
2 51623  87.8837  35.1915 0001839 101.4152 258.7182 13.10311897209995
ONEWEB-0415             
1 51624U 22012C   26173.58397686 -.00000120  00000+0 -38052-3 0  9991
2 51624  87.8837  35.1910 0001921  90.9392 269.1955 13.10325802209996
ONEWEB-0416             
1 51625U 22012D   26173.59583662  .00000453  00000+0  12620-2 0  9993
2 51625  87.8830  35.2063 0002235  90.7858 269.3525 13.10276703210031
ONEWEB-0422             
1 51626U 22012E   26173.23919576  .00000054  00000+0  10641-3 0  9991
2 51626  87.9139   4.8533 0001252  95.7031 264.4244 13.17649814214475
ONEWEB-0423             
1 51627U 22012F   26173.46024822  .00000043  00000+0  77562-4 0  9992
2 51627  87.9134   4.8147 0001884  85.3208 274.8138 13.17650950214395
ONEWEB-0425             
1 51628U 22012G   26173.07143374  .00000567  00000+0  15911-2 0  9993
2 51628  87.8829  35.2943 0002095  76.6353 283.5008 13.10232547209968
ONEWEB-0428             
1 51629U 22012H   26173.58567394  .00000003  00000+0 -28339-4 0  9998
2 51629  87.8834  35.1990 0001771  82.9161 277.2168 13.10319174209995
ONEWEB-0431             
1 51630U 22012J   26173.32606608 -.00000397  00000+0 -11716-2 0  9990
2 51630  87.8826  35.2431 0001778 103.8676 256.2650 13.10441219210014
ONEWEB-0434             
1 51631U 22012K   26173.07495535  .00000507  00000+0  14206-2 0  9996
2 51631  87.8830  35.3186 0002218  69.3692 290.7673 13.10218726209967
ONEWEB-0435             
1 51632U 22012L   26173.31100253  .00000356  00000+0  98220-3 0  9995
2 51632  87.8822  35.2571 0001545  90.2547 269.8758 13.10503260209983
ONEWEB-0436             
1 51633U 22012M   26173.75555419  .00000018  00000+0  13793-4 0  9990
2 51633  87.9140   4.7378 0001662  93.2406 266.8916 13.17649772214414
ONEWEB-0438             
1 51634U 22012N   26173.37182670  .00000604  00000+0  16968-2 0  9990
2 51634  87.8824  35.2483 0001938  79.7920 280.3426 13.10254346210027
ONEWEB-0439             
1 51635U 22012P   26173.06975249  .00000214  00000+0  57780-3 0  9994
2 51635  87.8828  35.2960 0001822  81.6638 278.4696 13.10241946209962
ONEWEB-0442             
1 51636U 22012Q   26173.44422137  .00000056  00000+0  11023-3 0  9994
2 51636  87.9131   4.8322 0002320  79.9419 280.1974 13.17649302214360
ONEWEB-0443             
1 51637U 22012R   26173.23580835  .00000054  00000+0  10652-3 0  9997
2 51637  87.9133   4.8747 0001682  79.1764 280.9557 13.17650103214387
ONEWEB-0444             
1 51638U 22012S   26173.59414360  .00000388  00000+0  10770-2 0  9996
2 51638  87.8831  35.1901 0001668  78.0060 282.1254 13.10284130210045
ONEWEB-0445             
1 51639U 22012T   26173.30930951  .00000437  00000+0  12121-2 0  9992
2 51639  87.8832  35.2352 0002056  90.1137 270.0226 13.10509734210012
ONEWEB-0446             
1 51640U 22012U   26173.59244831  .00000347  00000+0  95869-3 0  9991
2 51640  87.8838  35.2074 0002013  86.8898 273.2459 13.10291167210033
ONEWEB-0448             
1 51641U 22012V   26173.59752478  .00000536  00000+0  15017-2 0  9999
2 51641  87.8828  35.2028 0001759  81.2793 278.8534 13.10269120210007
ONEWEB-0449             
1 51642U 22012W   26173.37351858  .00000614  00000+0  17258-2 0  9999
2 51642  87.8834  35.2332 0002149  73.2715 286.8648 13.10247061209982
ONEWEB-0451             
1 51643U 22012X   26173.52438221  .00000060  00000+0  12197-3 0  9990
2 51643  87.9143   4.7815 0001965  83.2230 276.9125 13.17649440214364
ONEWEB-0452             
1 51644U 22012Y   26173.52268278  .00000016  00000+0  85799-5 0  9995
2 51644  87.9133   4.8181 0001798  79.5331 280.6003 13.17649484214371
ONEWEB-0456             
1 51646U 22012AA  26173.38226791  .00001090  00000+0  30783-2 0  9998
2 51646  87.8839  35.2189 0001619  85.2134 274.9179 13.10529357210025
ONEWEB-0457             
1 51647U 22012AB  26173.58892216  .00000169  00000+0  44933-3 0  9991
2 51647  87.8833  35.1957 0002212  85.9488 274.1892 13.10305021210058
ONEWEB-0458             
1 51648U 22012AC  26173.38127694  .00000532  00000+0  14879-2 0  9990
2 51648  87.8837  35.2249 0001752  77.3237 282.8086 13.10371363209986
ONEWEB-0461             
1 51649U 22012AD  26173.62056020  .00000007  00000+0 -14484-4 0  9994
2 51649  87.9142   4.7763 0001989  89.8893 270.2466 13.17649122214603
ONEWEB-0463             
1 51650U 22012AE  26173.45013262  .00000051  00000+0  98251-4 0  9990
2 51650  87.9131   4.8323 0001995  91.0685 269.0675 13.17649232214360
ONEWEB-0464             
1 51651U 22012AF  26173.37859070  .00000980  00000+0  27766-2 0  9999
2 51651  87.8823  35.2470 0001564  80.3464 279.7840 13.10228914210009
ONEWEB-0468             
1 51652U 22012AG  26173.30761794  .00000430  00000+0  11923-2 0  9996
2 51652  87.8823  35.2548 0001535  81.8000 278.3301 13.10516620209971
